[{"OBJECT_NAME":"QPS-SAR-14 (YACHIHOKO-I)","OBJECT_ID":"2025-252A","EPOCH":"2026-03-09T23:58:05.760192","MEAN_MOTION":14.98763566,"ECCENTRICITY":0.00075988,"INCLINATION":42.0055,"RA_OF_ASC_NODE":316.7582,"ARG_OF_PERICENTER":330.3293,"MEAN_ANOMALY":29.71,"EPHEMERIS_TYPE":0,"CLASSIFICATION_TYPE":"U","NORAD_CAT_ID":66316,"ELEMENT_SET_NO":999,"REV_AT_EPOCH":1862,"BSTAR":0.00051193076,"MEAN_MOTION_DOT":6.093e-5,"MEAN_MOTION_DDOT":0},{"OBJECT_NAME":"STARLINK-36132","OBJECT_ID":"2025-293AB","EPOCH":"2026-03-09T11:34:34.435200","MEAN_MOTION":14.98312738,"ECCENTRICITY":0.00038358,"INCLINATION":70.0004,"RA_OF_ASC_NODE":95.1029,"ARG_OF_PERICENTER":273.1454,"MEAN_ANOMALY":86.9266,"EPHEMERIS_TYPE":0,"CLASSIFICATION_TYPE":"U","NORAD_CAT_ID":67028,"ELEMENT_SET_NO":999,"REV_AT_EPOCH":1485,"BSTAR":-0.00069178118,"MEAN_MOTION_DOT":-8.334e-5,"MEAN_MOTION_DDOT":0}]
